start=new Date('2023-05-10T00:00:00.000Z').valueOf();
sats=[{"RA_OF_ASC_NODE":"58.1017","COUNTRY_CODE":"US","NORAD_CAT_ID":"52091","REF_FRAME":"TEME","MEAN_MOTION":"15.08852992","MEAN_MOTION_DDOT":"0.0000000000000","APOAPSIS":"540.517","SITE":"AFETR","DECAY_DATE":null,"REV_AT_EPOCH":"6431","ARG_OF_PERICENTER":"113.2060","LAUNCH_DATE":"2022-03-19","EPOCH":"2023-05-09T02:10:38.550144","PERIOD":"95.437","GP_ID":"231507937","TLE_LINE1":"1 52091U 22029D   23129.09072396  .00005320  00000-0  35194-3 0  9990","OBJECT_NAME":"STARLINK-3713","ELEMENT_SET_NO":"999","INCLINATION":"53.2175","CLASSIFICATION_TYPE":"U","TLE_LINE2":"2 52091  53.2175  58.1017 0001173 113.2060 246.9056 15.08852992 64314","PERIAPSIS":"538.894","OBJECT_TYPE":"PAYLOAD","FILE":"3904553","ECCENTRICITY":"0.00011730","OBJECT_ID":"2022-029D","EPHEMERIS_TYPE":"0","RCS_SIZE":"LARGE","BSTAR":"0.00035194000000","TIME_SYSTEM":"UTC","MEAN_ELEMENT_THEORY":"SGP4","CENTER_NAME":"EARTH","SEMIMAJOR_AXIS":"6917.841","MEAN_MOTION_DOT":"0.00005320","MEAN_ANOMALY":"246.9056"},{"APOAPSIS":"540.586","MEAN_MOTION_DDOT":"0.0000000000000","ARG_OF_PERICENTER":"110.3194","DECAY_DATE":null,"REV_AT_EPOCH":"6431","SITE":"AFETR","NORAD_CAT_ID":"52092","RA_OF_ASC_NODE":"58.1197","COUNTRY_CODE":"US","MEAN_MOTION":"15.08849774","REF_FRAME":"TEME","GP_ID":"231508675","TLE_LINE1":"1 52092U 22029E   23129.08704700  .00010809  00000-0  69599-3 0  9995","OBJECT_NAME":"STARLINK-3716","LAUNCH_DATE":"2022-03-19","PERIOD":"95.437","EPOCH":"2023-05-09T02:05:20.860800","FILE":"3904553","OBJECT_ID":"2022-029E","ECCENTRICITY":"0.00012580","EPHEMERIS_TYPE":"0","PERIAPSIS":"538.845","TLE_LINE2":"2 52092  53.2169  58.1197 0001258 110.3194 249.7934 15.08849774 64317","INCLINATION":"53.2169","CLASSIFICATION_TYPE":"U","ELEMENT_SET_NO":"999","OBJECT_TYPE":"PAYLOAD","MEAN_MOTION_DOT":"0.00010809","SEMIMAJOR_AXIS":"6917.851","MEAN_ANOMALY":"249.7934","RCS_SIZE":"LARGE","CENTER_NAME":"EARTH","MEAN_ELEMENT_THEORY":"SGP4","BSTAR":"0.00069599000000","TIME_SYSTEM":"UTC"},{"MEAN_MOTION_DDOT":"0.0000000000000","APOAPSIS":"540.578","SITE":"AFETR","DECAY_DATE":null,"REV_AT_EPOCH":"6431","ARG_OF_PERICENTER":"89.5946","COUNTRY_CODE":"US","RA_OF_ASC_NODE":"58.1743","NORAD_CAT_ID":"52093","REF_FRAME":"TEME","MEAN_MOTION":"15.08852888","TLE_LINE1":"1 52093U 22029F   23129.07696323  .00003064  00000-0  21047-3 0  9997","GP_ID":"231507436","OBJECT_NAME":"STARLINK-3673","LAUNCH_DATE":"2022-03-19","EPOCH":"2023-05-09T01:50:49.623072","PERIOD":"95.437","FILE":"3904553","ECCENTRICITY":"0.00012610","OBJECT_ID":"2022-029F","EPHEMERIS_TYPE":"0","ELEMENT_SET_NO":"999","CLASSIFICATION_TYPE":"U","INCLINATION":"53.2175","TLE_LINE2":"2 52093  53.2175  58.1743 0001261  89.5946 270.5190 15.08852888 64314","PERIAPSIS":"538.834","OBJECT_TYPE":"PAYLOAD","SEMIMAJOR_AXIS":"6917.841","MEAN_MOTION_DOT":"0.00003064","MEAN_ANOMALY":"270.5190","RCS_SIZE":"LARGE","BSTAR":"0.00021047000000","TIME_SYSTEM":"UTC","MEAN_ELEMENT_THEORY":"SGP4","CENTER_NAME":"EARTH"},{"GP_ID":"231507187","TLE_LINE1":"1 52094U 22029G   23129.07968233  .00003600  00000-0  24409-3 0  9991","OBJECT_NAME":"STARLINK-3714","LAUNCH_DATE":"2022-03-19","EPOCH":"2023-05-09T01:54:44.553312","PERIOD":"95.437","APOAPSIS":"540.425","MEAN_MOTION_DDOT":"0.0000000000000","SITE":"AFETR","REV_AT_EPOCH":"6431","DECAY_DATE":null,"ARG_OF_PERICENTER":"95.0480","RA_OF_ASC_NODE":"58.1514","COUNTRY_CODE":"US","NORAD_CAT_ID":"52094","REF_FRAME":"TEME","MEAN_MOTION":"15.08852433","SEMIMAJOR_AXIS":"6917.842","MEAN_MOTION_DOT":"0.00003600","MEAN_ANOMALY":"265.0630","RCS_SIZE":"LARGE","TIME_SYSTEM":"UTC","BSTAR":"0.00024409000000","MEAN_ELEMENT_THEORY":"SGP4","CENTER_NAME":"EARTH","OBJECT_ID":"2022-029G","FILE":"3904553","ECCENTRICITY":"0.00010370","EPHEMERIS_TYPE":"0","ELEMENT_SET_NO":"999","INCLINATION":"53.2177","CLASSIFICATION_TYPE":"U","TLE_LINE2":"2 52094  53.2177  58.1514 0001037  95.0480 265.0630 15.08852433 64313","PERIAPSIS":"538.990","OBJECT_TYPE":"PAYLOAD"},{"MEAN_ELEMENT_THEORY":"SGP4","TIME_SYSTEM":"UTC","BSTAR":"0.00007227200000","CENTER_NAME":"EARTH","RCS_SIZE":"LARGE","MEAN_ANOMALY":"286.6499","SEMIMAJOR_AXIS":"6917.817","MEAN_MOTION_DOT":"0.00000863","OBJECT_TYPE":"PAYLOAD","INCLINATION":"53.2185","CLASSIFICATION_TYPE":"U","ELEMENT_SET_NO":"999","PERIAPSIS":"538.782","TLE_LINE2":"2 52095  53.2185  58.2026 0001302  73.4637 286.6499 15.08860663 64317","EPHEMERIS_TYPE":"0","FILE":"3904553","OBJECT_ID":"2022-029H","ECCENTRICITY":"0.00013020","PERIOD":"95.436","EPOCH":"2023-05-09T01:38:50.131392","LAUNCH_DATE":"2022-03-19","OBJECT_NAME":"STARLINK-3701","GP_ID":"231508438","TLE_LINE1":"1 52095U 22029H   23129.06863578  .00000863  00000-0  72272-4 0  9997","MEAN_MOTION":"15.08860663","REF_FRAME":"TEME","COUNTRY_CODE":"US","RA_OF_ASC_NODE":"58.2026","NORAD_CAT_ID":"52095","DECAY_DATE":null,"REV_AT_EPOCH":"6431","SITE":"AFETR","ARG_OF_PERICENTER":"73.4637","MEAN_MOTION_DDOT":"0.0000000000000","APOAPSIS":"540.583"},{"CLASSIFICATION_TYPE":"U","INCLINATION":"53.2176","ELEMENT_SET_NO":"999","PERIAPSIS":"538.777","TLE_LINE2":"2 52096  53.2176  48.2977 0001296  82.9630 277.1509 15.08863473 64434","OBJECT_TYPE":"PAYLOAD","FILE":"3904553","ECCENTRICITY":"0.00012960","OBJECT_ID":"2022-029J","EPHEMERIS_TYPE":"0","RCS_SIZE":"LARGE","MEAN_ELEMENT_THEORY":"SGP4","BSTAR":"0.00007761700000","TIME_SYSTEM":"UTC","CENTER_NAME":"EARTH","SEMIMAJOR_AXIS":"6917.809","MEAN_MOTION_DOT":"0.00000948","MEAN_ANOMALY":"277.1509","RA_OF_ASC_NODE":"48.2977","COUNTRY_CODE":"US","NORAD_CAT_ID":"52096","MEAN_MOTION":"15.08863473","REF_FRAME":"TEME","APOAPSIS":"540.570","MEAN_MOTION_DDOT":"0.0000000000000","DECAY_DATE":null,"REV_AT_EPOCH":"6443","SITE":"AFETR","ARG_OF_PERICENTER":"82.9630","LAUNCH_DATE":"2022-03-19","PERIOD":"95.436","EPOCH":"2023-05-09T01:08:21.605856","GP_ID":"231508175","TLE_LINE1":"1 52096U 22029J   23129.04747229  .00000948  00000-0  77617-4 0  9992","OBJECT_NAME":"STARLINK-3717"},{"MEAN_MOTION_DDOT":"0.0000000000000","APOAPSIS":"540.833","ARG_OF_PERICENTER":"92.3732","SITE":"AFETR","REV_AT_EPOCH":"6431","DECAY_DATE":null,"NORAD_CAT_ID":"52098","COUNTRY_CODE":"US","RA_OF_ASC_NODE":"58.1864","REF_FRAME":"TEME","MEAN_MOTION":"15.08847824","TLE_LINE1":"1 52098U 22029L   23129.07233408 -.00004996  00000-0 -29597-3 0  9998","GP_ID":"231506936","OBJECT_NAME":"STARLINK-3665","LAUNCH_DATE":"2022-03-19","EPOCH":"2023-05-09T01:44:09.664512","PERIOD":"95.437","ECCENTRICITY":"0.00016070","FILE":"3904553","OBJECT_ID":"2022-029L","EPHEMERIS_TYPE":"0","TLE_LINE2":"2 52098  53.2179  58.1864 0001607  92.3732 267.7444 15.08847824 64310","PERIAPSIS":"538.610","ELEMENT_SET_NO":"999","INCLINATION":"53.2179","CLASSIFICATION_TYPE":"U","OBJECT_TYPE":"PAYLOAD","MEAN_MOTION_DOT":"-0.00004996","SEMIMAJOR_AXIS":"6917.856","MEAN_ANOMALY":"267.7444","RCS_SIZE":"LARGE","CENTER_NAME":"EARTH","BSTAR":"-0.00029597000000","TIME_SYSTEM":"UTC","MEAN_ELEMENT_THEORY":"SGP4"},{"REF_FRAME":"TEME","MEAN_MOTION":"15.08855555","NORAD_CAT_ID":"52100","RA_OF_ASC_NODE":"58.2180","COUNTRY_CODE":"US","ARG_OF_PERICENTER":"83.3268","SITE":"AFETR","REV_AT_EPOCH":"6431","DECAY_DATE":null,"APOAPSIS":"540.535","MEAN_MOTION_DDOT":"0.0000000000000","EPOCH":"2023-05-09T01:33:33.482304","PERIOD":"95.437","LAUNCH_DATE":"2022-03-19","OBJECT_NAME":"STARLINK-3702","GP_ID":"231507687","TLE_LINE1":"1 52100U 22029N   23129.06497086  .00011447  00000-0  73584-3 0  9997","OBJECT_TYPE":"PAYLOAD","TLE_LINE2":"2 52100  53.2174  58.2180 0001210  83.3268 276.7861 15.08855555 64318","PERIAPSIS":"538.861","ELEMENT_SET_NO":"999","CLASSIFICATION_TYPE":"U","INCLINATION":"53.2174","EPHEMERIS_TYPE":"0","OBJECT_ID":"2022-029N","FILE":"3904553","ECCENTRICITY":"0.00012100","CENTER_NAME":"EARTH","TIME_SYSTEM":"UTC","BSTAR":"0.00073584000000","MEAN_ELEMENT_THEORY":"SGP4","RCS_SIZE":"LARGE","MEAN_ANOMALY":"276.7861","MEAN_MOTION_DOT":"0.00011447","SEMIMAJOR_AXIS":"6917.833"},{"MEAN_MOTION":"15.08853108","REF_FRAME":"TEME","NORAD_CAT_ID":"52101","COUNTRY_CODE":"US","RA_OF_ASC_NODE":"57.9584","ARG_OF_PERICENTER":"86.6014","REV_AT_EPOCH":"6431","DECAY_DATE":null,"SITE":"AFETR","APOAPSIS":"540.475","MEAN_MOTION_DDOT":"0.0000000000000","PERIOD":"95.437","EPOCH":"2023-05-09T02:59:42.962784","LAUNCH_DATE":"2022-03-19","OBJECT_NAME":"STARLINK-3703","GP_ID":"231507938","TLE_LINE1":"1 52101U 22029P   23129.12480281  .00003882  00000-0  26177-3 0  9994","OBJECT_TYPE":"PAYLOAD","PERIAPSIS":"538.936","TLE_LINE2":"2 52101  53.2180  57.9584 0001112  86.6014 273.5105 15.08853108 64314","CLASSIFICATION_TYPE":"U","INCLINATION":"53.2180","ELEMENT_SET_NO":"999","EPHEMERIS_TYPE":"0","OBJECT_ID":"2022-029P","FILE":"3904553","ECCENTRICITY":"0.00011120","CENTER_NAME":"EARTH","MEAN_ELEMENT_THEORY":"SGP4","TIME_SYSTEM":"UTC","BSTAR":"0.00026177000000","RCS_SIZE":"LARGE","MEAN_ANOMALY":"273.5105","MEAN_MOTION_DOT":"0.00003882","SEMIMAJOR_AXIS":"6917.840"},{"PERIOD":"95.437","EPOCH":"2023-05-09T01:36:14.450688","LAUNCH_DATE":"2022-03-19","OBJECT_NAME":"STARLINK-3709","GP_ID":"231508676","TLE_LINE1":"1 52102U 22029Q   23129.06683392 -.00000200  00000-0  55011-5 0  9999","MEAN_MOTION":"15.08853391","REF_FRAME":"TEME","COUNTRY_CODE":"US","RA_OF_ASC_NODE":"48.2097","NORAD_CAT_ID":"52102","DECAY_DATE":null,"REV_AT_EPOCH":"6444","SITE":"AFETR","ARG_OF_PERICENTER":"93.7702","APOAPSIS":"540.426","MEAN_MOTION_DDOT":"0.0000000000000","MEAN_ELEMENT_THEORY":"SGP4","TIME_SYSTEM":"UTC","BSTAR":"0.00000550110000","CENTER_NAME":"EARTH","RCS_SIZE":"LARGE","MEAN_ANOMALY":"266.3409","SEMIMAJOR_AXIS":"6917.839","MEAN_MOTION_DOT":"-0.00000200","OBJECT_TYPE":"PAYLOAD","CLASSIFICATION_TYPE":"U","INCLINATION":"53.2179","ELEMENT_SET_NO":"999","PERIAPSIS":"538.983","TLE_LINE2":"2 52102  53.2179  48.2097 0001043  93.7702 266.3409 15.08853391 64446","EPHEMERIS_TYPE":"0","FILE":"3904553","ECCENTRICITY":"0.00010430","OBJECT_ID":"2022-029Q"}];
